[
    {
        "Altitude(m)": 610399.5191848396,
        "Argument of Periapsis(deg)": 0.0,
        "Eccentricity": 0.0,
        "Inclination(deg)": 60.0,
        "Latitude(deg)": 52.111308313054735,
        "Longitude(deg)": -142.41559245219634,
        "Mean Anomaly(deg)": 65.45449999999998,
        "RAAN(deg)": 270.0,
        "Satellite Name": "Test1 1192",
        "Satellite Number": 1192,
        "Semi-Major Axis(m)": 6980739.136638005,
        "Time(s)": 0
    },
    {
        "Altitude(m)": 610481.6699108601,
        "Argument of Periapsis(deg)": 0.00010418945913296404,
        "Eccentricity": 0.0,
        "Inclination(deg)": 60.0,
        "Latitude(deg)": 52.47090948576775,
        "Longitude(deg)": -141.63345538493888,
        "Mean Anomaly(deg)": 66.07460614546183,
        "RAAN(deg)": 269.99957995086027,
        "Satellite Name": "Test1 1192",
        "Satellite Number": 1192,
        "Semi-Major Axis(m)": 6980739.136638005,
        "Time(s)": 10
    },
    {
        "Altitude(m)": 610562.3594508815,
        "Argument of Periapsis(deg)": 0.0002083789182659281,
        "Eccentricity": 0.0,
        "Inclination(deg)": 60.0,
        "Latitude(deg)": 52.824663242007105,
        "Longitude(deg)": -140.83790535010175,
        "Mean Anomaly(deg)": 66.69471229092363,
        "RAAN(deg)": 269.9991599017205,
        "Satellite Name": "Test1 1192",
        "Satellite Number": 1192,
        "Semi-Major Axis(m)": 6980739.136638005,
        "Time(s)": 20
    },
    {
        "Altitude(m)": 610641.5403391201,
        "Argument of Periapsis(deg)": 0.00031256837739889213,
        "Eccentricity": 0.0,
        "Inclination(deg)": 60.0,
        "Latitude(deg)": 53.172400055006044,
        "Longitude(deg)": -140.02877784016434,
        "Mean Anomaly(deg)": 67.3148184363855,
        "RAAN(deg)": 269.9987398525808,
        "Satellite Name": "Test1 1192",
        "Satellite Number": 1192,
        "Semi-Major Axis(m)": 6980739.136638005,
        "Time(s)": 30
    },
    {
        "Altitude(m)": 610719.1660662445,
        "Argument of Periapsis(deg)": 0.0004167578365318562,
        "Eccentricity": 0.0,
        "Inclination(deg)": 60.0,
        "Latitude(deg)": 53.51394692213041,
        "Longitude(deg)": -139.20591996023424,
        "Mean Anomaly(deg)": 67.93492458184728,
        "RAAN(deg)": 269.99831980344106,
        "Satellite Name": "Test1 1192",
        "Satellite Number": 1192,
        "Semi-Major Axis(m)": 6980739.136638005,
        "Time(s)": 40
    },
    {
        "Altitude(m)": 610795.1911017124,
        "Argument of Periapsis(deg)": 0.0005209472956648203,
        "Eccentricity": 0.0,
        "Inclination(deg)": 60.0,
        "Latitude(deg)": 53.849127486847756,
        "Longitude(deg)": -138.36919284222836,
        "Mean Anomaly(deg)": 68.55503072730914,
        "RAAN(deg)": 269.9978997543013,
        "Satellite Name": "Test1 1192",
        "Satellite Number": 1192,
        "Semi-Major Axis(m)": 6980739.136638005,
        "Time(s)": 50
    },
    {
        "Altitude(m)": 610869.5709155877,
        "Argument of Periapsis(deg)": 0.0006251367547977843,
        "Eccentricity": 0.0,
        "Inclination(deg)": 60.0,
        "Latitude(deg)": 54.17776218501925,
        "Longitude(deg)": -137.5184726118261,
        "Mean Anomaly(deg)": 69.175136872771,
        "RAAN(deg)": 269.99747970516154,
        "Satellite Name": "Test1 1192",
        "Satellite Number": 1192,
        "Semi-Major Axis(m)": 6980739.136638005,
        "Time(s)": 60
    },
    {
        "Altitude(m)": 610942.2619998773,
        "Argument of Periapsis(deg)": 0.0007293262139307483,
        "Eccentricity": 0.0,
        "Inclination(deg)": 60.0,
        "Latitude(deg)": 54.499668417179905,
        "Longitude(deg)": -136.65365141675915,
        "Mean Anomaly(deg)": 69.79524301823281,
        "RAAN(deg)": 269.9970596560218,
        "Satellite Name": "Test1 1192",
        "Satellite Number": 1192,
        "Semi-Major Axis(m)": 6980739.136638005,
        "Time(s)": 70
    },
    {
        "Altitude(m)": 611013.2218893508,
        "Argument of Periapsis(deg)": 0.0008335156730637124,
        "Eccentricity": 0.0,
        "Inclination(deg)": 60.0,
        "Latitude(deg)": 54.81466074843548,
        "Longitude(deg)": -135.77464002369413,
        "Mean Anomaly(deg)": 70.41534916369464,
        "RAAN(deg)": 269.99663960688207,
        "Satellite Name": "Test1 1192",
        "Satellite Number": 1192,
        "Semi-Major Axis(m)": 6980739.136638005,
        "Time(s)": 80
    },
    {
        "Altitude(m)": 611082.4091818338,
        "Argument of Periapsis(deg)": 0.0009377051321966765,
        "Eccentricity": 0.0,
        "Inclination(deg)": 60.0,
        "Latitude(deg)": 55.122551137528255,
        "Longitude(deg)": -134.8813689509188,
        "Mean Anomaly(deg)": 71.03545530915646,
        "RAAN(deg)": 269.99621955774234,
        "Satellite Name": "Test1 1192",
        "Satellite Number": 1192,
        "Semi-Major Axis(m)": 6980739.136638005,
        "Time(s)": 90
    },
    {
        "Altitude(m)": 611149.7835580067,
        "Argument of Periapsis(deg)": 0.0010418945913296407,
        "Eccentricity": 0.0,
        "Inclination(deg)": 60.0,
        "Latitude(deg)": 55.42314919653624,
        "Longitude(deg)": -133.97378964111425,
        "Mean Anomaly(deg)": 71.65556145461831,
        "RAAN(deg)": 269.99579950860254,
        "Satellite Name": "Test1 1192",
        "Satellite Number": 1192,
        "Semi-Major Axis(m)": 6980739.136638005,
        "Time(s)": 100
    },
    {
        "Altitude(m)": 611215.3058006287,
        "Argument of Periapsis(deg)": 0.0011460840504626045,
        "Eccentricity": 0.0,
        "Inclination(deg)": 60.0,
        "Latitude(deg)": 55.71626248253518,
        "Longitude(deg)": -133.05187717685934,
        "Mean Anomaly(deg)": 72.27566760008011,
        "RAAN(deg)": 269.99537945946287,
        "Satellite Name": "Test1 1192",
        "Satellite Number": 1192,
        "Semi-Major Axis(m)": 6980739.136638005,
        "Time(s)": 110
    },
    {
        "Altitude(m)": 611278.937813253,
        "Argument of Periapsis(deg)": 0.0012502735095955685,
        "Eccentricity": 0.0,
        "Inclination(deg)": 60.0,
        "Latitude(deg)": 56.0016968223779,
        "Longitude(deg)": -132.11563150117567,
        "Mean Anomaly(deg)": 72.89577374554196,
        "RAAN(deg)": 269.99495941032313,
        "Satellite Name": "Test1 1192",
        "Satellite Number": 1192,
        "Semi-Major Axis(m)": 6980739.136638005,
        "Time(s)": 120
    },
    {
        "Altitude(m)": 611340.6426383664,
        "Argument of Periapsis(deg)": 0.0013544629687285324,
        "Eccentricity": 0.0,
        "Inclination(deg)": 60.0,
        "Latitude(deg)": 56.27925667154056,
        "Longitude(deg)": -131.1650786422651,
        "Mean Anomaly(deg)": 73.51587989100376,
        "RAAN(deg)": 269.99453936118334,
        "Satellite Name": "Test1 1192",
        "Satellite Number": 1192,
        "Semi-Major Axis(m)": 6980739.136638005,
        "Time(s)": 130
    },
    {
        "Altitude(m)": 611400.3844750146,
        "Argument of Periapsis(deg)": 0.0014586524278614966,
        "Eccentricity": 0.0,
        "Inclination(deg)": 60.0,
        "Latitude(deg)": 56.54874550773175,
        "Longitude(deg)": -130.20027343978433,
        "Mean Anomaly(deg)": 74.13598603646562,
        "RAAN(deg)": 269.9941193120436,
        "Satellite Name": "Test1 1192",
        "Satellite Number": 1192,
        "Semi-Major Axis(m)": 6980739.136638005,
        "Time(s)": 140
    },
    {
        "Altitude(m)": 611458.1286958018,
        "Argument of Periapsis(deg)": 0.0015628418869944607,
        "Eccentricity": 0.0,
        "Inclination(deg)": 60.0,
        "Latitude(deg)": 56.80996625965558,
        "Longitude(deg)": -129.22130072960158,
        "Mean Anomaly(deg)": 74.75609218192743,
        "RAAN(deg)": 269.9936992629039,
        "Satellite Name": "Test1 1192",
        "Satellite Number": 1192,
        "Semi-Major Axis(m)": 6980739.136638005,
        "Time(s)": 150
    },
    {
        "Altitude(m)": 611513.8418633705,
        "Argument of Periapsis(deg)": 0.0016670313461274247,
        "Eccentricity": 0.0,
        "Inclination(deg)": 60.0,
        "Latitude(deg)": 57.06272177098189,
        "Longitude(deg)": -128.22827648084876,
        "Mean Anomaly(deg)": 75.37619832738928,
        "RAAN(deg)": 269.99327921376414,
        "Satellite Name": "Test1 1192",
        "Satellite Number": 1192,
        "Semi-Major Axis(m)": 6980739.136638005,
        "Time(s)": 160
    },
    {
        "Altitude(m)": 611567.4917462916,
        "Argument of Periapsis(deg)": 0.0017712208052603888,
        "Eccentricity": 0.0,
        "Inclination(deg)": 60.0,
        "Latitude(deg)": 57.306815299186155,
        "Longitude(deg)": -127.22135037744579,
        "Mean Anomaly(deg)": 75.99630447285112,
        "RAAN(deg)": 269.9928591646244,
        "Satellite Name": "Test1 1192",
        "Satellite Number": 1192,
        "Semi-Major Axis(m)": 6980739.136638005,
        "Time(s)": 170
    },
    {
        "Altitude(m)": 611619.0473343604,
        "Argument of Periapsis(deg)": 0.001875410264393353,
        "Eccentricity": 0.0,
        "Inclination(deg)": 60.0,
        "Latitude(deg)": 57.542051048482264,
        "Longitude(deg)": -126.20070679617888,
        "Mean Anomaly(deg)": 76.61641061831293,
        "RAAN(deg)": 269.9924391154846,
        "Satellite Name": "Test1 1192",
        "Satellite Number": 1192,
        "Semi-Major Axis(m)": 6980739.136638005,
        "Time(s)": 180
    },
    {
        "Altitude(m)": 611668.4788533023,
        "Argument of Periapsis(deg)": 0.0019795997235263173,
        "Eccentricity": 0.0,
        "Inclination(deg)": 60.0,
        "Latitude(deg)": 57.768234735600515,
        "Longitude(deg)": -125.16656567075621,
        "Mean Anomaly(deg)": 77.23651676377479,
        "RAAN(deg)": 269.99201906634494,
        "Satellite Name": "Test1 1192",
        "Satellite Number": 1192,
        "Semi-Major Axis(m)": 6980739.136638005,
        "Time(s)": 190
    }
]